CCSDS_OMM_VERS = 2.0
CREATION_DATE  = 
ORIGINATOR     = 

OBJECT_NAME    = HTV-X1
OBJECT_ID      = 2025-241A
CENTER_NAME    = EARTH
REF_FRAME      = TEME
TIME_SYSTEM    = UTC
MEAN_ELEMENT_THEORY = SGP/SGP4

EPOCH          = 2026-03-27T20:15:54.914976
MEAN_MOTION    = 15.32425085
ECCENTRICITY   = .0007354
INCLINATION    = 51.6384
RA_OF_ASC_NODE = 345.5888
ARG_OF_PERICENTER = 241.4372
MEAN_ANOMALY   = 118.5870

EPHEMERIS_TYPE = 0
CLASSIFICATION_TYPE = U
NORAD_CAT_ID   = 66174
ELEMENT_SET_NO = 999
REV_AT_EPOCH   = 2372
BSTAR          = .96895E-4
MEAN_MOTION_DOT = .271E-4
MEAN_MOTION_DDOT = 0

CCSDS_OMM_VERS = 2.0
CREATION_DATE  = 
ORIGINATOR     = 

OBJECT_NAME    = SZ-21 MODULE
OBJECT_ID      = 2025-246C
CENTER_NAME    = EARTH
REF_FRAME      = TEME
TIME_SYSTEM    = UTC
MEAN_ELEMENT_THEORY = SGP/SGP4

EPOCH          = 2026-03-27T16:50:49.909056
MEAN_MOTION    = 15.69915920
ECCENTRICITY   = .0001454
INCLINATION    = 41.4743
RA_OF_ASC_NODE = 92.3645
ARG_OF_PERICENTER = 209.3733
MEAN_ANOMALY   = 150.7028

EPHEMERIS_TYPE = 0
CLASSIFICATION_TYPE = U
NORAD_CAT_ID   = 66515
ELEMENT_SET_NO = 999
REV_AT_EPOCH   = 2090
BSTAR          = .3014E-3
MEAN_MOTION_DOT = .37039E-3
MEAN_MOTION_DDOT = 0

CCSDS_OMM_VERS = 2.0
CREATION_DATE  = 
ORIGINATOR     = 

OBJECT_NAME    = SHENZHOU-22
OBJECT_ID      = 2025-272A
CENTER_NAME    = EARTH
REF_FRAME      = TEME
TIME_SYSTEM    = UTC
MEAN_ELEMENT_THEORY = SGP/SGP4

EPOCH          = 2026-03-27T19:40:26.533056
MEAN_MOTION    = 15.61560654
ECCENTRICITY   = .0004161
INCLINATION    = 41.4669
RA_OF_ASC_NODE = 97.7682
ARG_OF_PERICENTER = 40.1011
MEAN_ANOMALY   = 320.0134

EPHEMERIS_TYPE = 0
CLASSIFICATION_TYPE = U
NORAD_CAT_ID   = 66645
ELEMENT_SET_NO = 999
REV_AT_EPOCH   = 28056
BSTAR          = .18751E-3
MEAN_MOTION_DOT = .16258E-3
MEAN_MOTION_DDOT = 0

CCSDS_OMM_VERS = 2.0
CREATION_DATE  = 
ORIGINATOR     = 

OBJECT_NAME    = SOYUZ-MS 28
OBJECT_ID      = 2025-275A
CENTER_NAME    = EARTH
REF_FRAME      = TEME
TIME_SYSTEM    = UTC
MEAN_ELEMENT_THEORY = SGP/SGP4

EPOCH          = 2026-03-27T20:12:32.650848
MEAN_MOTION    = 15.48591753
ECCENTRICITY   = .0006212
INCLINATION    = 51.6344
RA_OF_ASC_NODE = 342.6225
ARG_OF_PERICENTER = 240.1567
MEAN_ANOMALY   = 119.8804

EPHEMERIS_TYPE = 0
CLASSIFICATION_TYPE = U
NORAD_CAT_ID   = 66664
ELEMENT_SET_NO = 999
REV_AT_EPOCH   = 55920
BSTAR          = .22728E-3
MEAN_MOTION_DOT = .1192E-3
MEAN_MOTION_DDOT = 0

CCSDS_OMM_VERS = 2.0
CREATION_DATE  = 
ORIGINATOR     = 

OBJECT_NAME    = DUPLEX
OBJECT_ID      = 1998-067XS
CENTER_NAME    = EARTH
REF_FRAME      = TEME
TIME_SYSTEM    = UTC
MEAN_ELEMENT_THEORY = SGP/SGP4

EPOCH          = 2026-03-27T07:16:43.345344
MEAN_MOTION    = 15.57391828
ECCENTRICITY   = .0002793
INCLINATION    = 51.6305
RA_OF_ASC_NODE = 341.2773
ARG_OF_PERICENTER = 193.7351
MEAN_ANOMALY   = 166.3565

EPHEMERIS_TYPE = 0
CLASSIFICATION_TYPE = U
NORAD_CAT_ID   = 66906
ELEMENT_SET_NO = 999
REV_AT_EPOCH   = 1787
BSTAR          = .40157E-3
MEAN_MOTION_DOT = .29604E-3
MEAN_MOTION_DDOT = 0

CCSDS_OMM_VERS = 2.0
CREATION_DATE  = 
ORIGINATOR     = 

OBJECT_NAME    = ISS OBJECT XT
OBJECT_ID      = 1998-067XT
CENTER_NAME    = EARTH
REF_FRAME      = TEME
TIME_SYSTEM    = UTC
MEAN_ELEMENT_THEORY = SGP/SGP4

EPOCH          = 2026-03-27T01:29:05.844480
MEAN_MOTION    = 15.75548676
ECCENTRICITY   = .00057392
INCLINATION    = 51.6250
RA_OF_ASC_NODE = 336.6305
ARG_OF_PERICENTER = 192.2616
MEAN_ANOMALY   = 167.8244

EPHEMERIS_TYPE = 0
CLASSIFICATION_TYPE = U
NORAD_CAT_ID   = 66907
ELEMENT_SET_NO = 999
REV_AT_EPOCH   = 1791
BSTAR          = .1380013E-2
MEAN_MOTION_DOT = .219962E-2
MEAN_MOTION_DDOT = 0

CCSDS_OMM_VERS = 2.0
CREATION_DATE  = 
ORIGINATOR     = 

OBJECT_NAME    = ISS OBJECT XU
OBJECT_ID      = 1998-067XU
CENTER_NAME    = EARTH
REF_FRAME      = TEME
TIME_SYSTEM    = UTC
MEAN_ELEMENT_THEORY = SGP/SGP4

EPOCH          = 2026-03-27T01:24:02.046528
MEAN_MOTION    = 15.75783311
ECCENTRICITY   = .0005927
INCLINATION    = 51.6238
RA_OF_ASC_NODE = 336.6028
ARG_OF_PERICENTER = 191.8620
MEAN_ANOMALY   = 168.2241

EPHEMERIS_TYPE = 0
CLASSIFICATION_TYPE = U
NORAD_CAT_ID   = 66908
ELEMENT_SET_NO = 999
REV_AT_EPOCH   = 1791
BSTAR          = .14272028E-2
MEAN_MOTION_DOT = .230149E-2
MEAN_MOTION_DDOT = 0

CCSDS_OMM_VERS = 2.0
CREATION_DATE  = 
ORIGINATOR     = 

OBJECT_NAME    = SILVERSAT
OBJECT_ID      = 1998-067XV
CENTER_NAME    = EARTH
REF_FRAME      = TEME
TIME_SYSTEM    = UTC
MEAN_ELEMENT_THEORY = SGP/SGP4

EPOCH          = 2026-03-27T09:31:56.794368
MEAN_MOTION    = 15.80899040
ECCENTRICITY   = .0006751
INCLINATION    = 51.6218
RA_OF_ASC_NODE = 333.6030
ARG_OF_PERICENTER = 200.0610
MEAN_ANOMALY   = 160.0127

EPHEMERIS_TYPE = 0
CLASSIFICATION_TYPE = U
NORAD_CAT_ID   = 66909
ELEMENT_SET_NO = 999
REV_AT_EPOCH   = 1798
BSTAR          = .13988E-2
MEAN_MOTION_DOT = .285869E-2
MEAN_MOTION_DDOT = 0

CCSDS_OMM_VERS = 2.0
CREATION_DATE  = 
ORIGINATOR     = 

OBJECT_NAME    = ISS OBJECT XW
OBJECT_ID      = 1998-067XW
CENTER_NAME    = EARTH
REF_FRAME      = TEME
TIME_SYSTEM    = UTC
MEAN_ELEMENT_THEORY = SGP/SGP4

EPOCH          = 2026-03-27T09:14:08.880864
MEAN_MOTION    = 15.74302538
ECCENTRICITY   = .0006156
INCLINATION    = 51.6240
RA_OF_ASC_NODE = 335.0299
ARG_OF_PERICENTER = 192.3775
MEAN_ANOMALY   = 167.7073

EPHEMERIS_TYPE = 0
CLASSIFICATION_TYPE = U
NORAD_CAT_ID   = 66910
ELEMENT_SET_NO = 999
REV_AT_EPOCH   = 1796
BSTAR          = .11341E-2
MEAN_MOTION_DOT = .170121E-2
MEAN_MOTION_DDOT = 0

CCSDS_OMM_VERS = 2.0
CREATION_DATE  = 
ORIGINATOR     = 

OBJECT_NAME    = ISS OBJECT XX
OBJECT_ID      = 1998-067XX
CENTER_NAME    = EARTH
REF_FRAME      = TEME
TIME_SYSTEM    = UTC
MEAN_ELEMENT_THEORY = SGP/SGP4

EPOCH          = 2026-03-27T20:21:32.523840
MEAN_MOTION    = 15.87462812
ECCENTRICITY   = .000854
INCLINATION    = 51.6197
RA_OF_ASC_NODE = 329.8299
ARG_OF_PERICENTER = 207.5646
MEAN_ANOMALY   = 152.4906

EPHEMERIS_TYPE = 0
CLASSIFICATION_TYPE = U
NORAD_CAT_ID   = 66911
ELEMENT_SET_NO = 999
REV_AT_EPOCH   = 1806
BSTAR          = .15432E-2
MEAN_MOTION_DOT = .439339E-2
MEAN_MOTION_DDOT = 0

CCSDS_OMM_VERS = 2.0
CREATION_DATE  = 
ORIGINATOR     = 

OBJECT_NAME    = ISS OBJECT XY
OBJECT_ID      = 1998-067XY
CENTER_NAME    = EARTH
REF_FRAME      = TEME
TIME_SYSTEM    = UTC
MEAN_ELEMENT_THEORY = SGP/SGP4

EPOCH          = 2026-03-27T09:24:42.437376
MEAN_MOTION    = 15.67254502
ECCENTRICITY   = .0004178
INCLINATION    = 51.6270
RA_OF_ASC_NODE = 337.3587
ARG_OF_PERICENTER = 191.2645
MEAN_ANOMALY   = 168.8258

EPHEMERIS_TYPE = 0
CLASSIFICATION_TYPE = U
NORAD_CAT_ID   = 66912
ELEMENT_SET_NO = 999
REV_AT_EPOCH   = 1792
BSTAR          = .89628E-3
MEAN_MOTION_DOT = .98975E-3
MEAN_MOTION_DDOT = 0

CCSDS_OMM_VERS = 2.0
CREATION_DATE  = 
ORIGINATOR     = 

OBJECT_NAME    = KNACKSAT-2
OBJECT_ID      = 1998-067XZ
CENTER_NAME    = EARTH
REF_FRAME      = TEME
TIME_SYSTEM    = UTC
MEAN_ELEMENT_THEORY = SGP/SGP4

EPOCH          = 2026-03-27T10:17:06.366624
MEAN_MOTION    = 15.53279398
ECCENTRICITY   = .0009914
INCLINATION    = 51.6325
RA_OF_ASC_NODE = 343.6129
ARG_OF_PERICENTER = 250.0621
MEAN_ANOMALY   = 109.9301

EPHEMERIS_TYPE = 0
CLASSIFICATION_TYPE = U
NORAD_CAT_ID   = 67683
ELEMENT_SET_NO = 999
REV_AT_EPOCH   = 754
BSTAR          = .57723E-3
MEAN_MOTION_DOT = .36813E-3
MEAN_MOTION_DDOT = 0

